ONEWEB-0549             
1 56051U 23043F   25270.12009452  .00000041  00000+0  67205-4 0  9996
2 56051  87.9183 296.4852 0001808 102.3929 257.7408 13.21825554123470
ONEWEB-0550             
1 56052U 23043G   25270.10747593  .00000075  00000+0  14963-3 0  9999
2 56052  87.9184 296.4818 0001887  87.9564 272.1786 13.21825364123473
ONEWEB-0551             
1 56053U 23043H   25270.14898801 -.00000096  00000+0 -28856-3 0  9994
2 56053  87.9004 311.7281 0001705 101.5048 258.6274 13.15546903121818
ONEWEB-0552             
1 56054U 23043J   25270.10115682  .00000094  00000+0  19588-3 0  9998
2 56054  87.9182 296.4918 0001603  96.8463 263.2853 13.21827357123477
ONEWEB-0553             
1 56055U 23043K   25270.00446197 -.00000001  00000+0 -37208-4 0  9996
2 56055  87.8965 281.2203 0002222  86.4731 273.6654 13.16595067124341
ONEWEB-0554             
1 56056U 23043L   25270.06780274 -.00000031  00000+0 -11345-3 0  9996
2 56056  87.8959 281.2308 0001820  82.8778 277.2560 13.16594148124339
ONEWEB-0555             
1 56057U 23043M   25270.10578028  .00000037  00000+0  62504-4 0  9992
2 56057  87.8969 281.1946 0002379  86.3726 273.7677 13.16592521124344
ONEWEB-0557             
1 56058U 23043N   25269.58805973 -.00000071  00000+0 -21951-3 0  9995
2 56058  87.8959 281.3152 0002611  62.8198 297.3199 13.16595126124273
